[{"OBJECT_NAME":"STARLINK-31838","OBJECT_ID":"2024-118T","EPOCH":"2026-03-09T03:49:12.104832","MEAN_MOTION":15.30209891,"ECCENTRICITY":0.00011058,"INCLINATION":53.1616,"RA_OF_ASC_NODE":29.2881,"ARG_OF_PERICENTER":105.1855,"MEAN_ANOMALY":254.9268,"EPHEMERIS_TYPE":0,"CLASSIFICATION_TYPE":"U","NORAD_CAT_ID":60130,"ELEMENT_SET_NO":999,"REV_AT_EPOCH":9561,"BSTAR":0.0001883876,"MEAN_MOTION_DOT":5.226e-5,"MEAN_MOTION_DDOT":0},{"OBJECT_NAME":"ATLAS 28E DEB","OBJECT_ID":"1990-031H","EPOCH":"2026-03-09T12:57:08.289792","MEAN_MOTION":15.28884159,"ECCENTRICITY":0.00278203,"INCLINATION":89.4108,"RA_OF_ASC_NODE":276.7439,"ARG_OF_PERICENTER":214.1843,"MEAN_ANOMALY":145.7617,"EPHEMERIS_TYPE":0,"CLASSIFICATION_TYPE":"U","NORAD_CAT_ID":20576,"ELEMENT_SET_NO":999,"REV_AT_EPOCH":37205,"BSTAR":0.00056600809,"MEAN_MOTION_DOT":0.00016095,"MEAN_MOTION_DDOT":0}]
